[{"OBJECT_NAME":"STARLINK-6312","OBJECT_ID":"2023-065AK","EPOCH":"2026-03-09T11:44:39.735456","MEAN_MOTION":15.02540288,"ECCENTRICITY":0.00018311,"INCLINATION":43.0045,"RA_OF_ASC_NODE":224.5252,"ARG_OF_PERICENTER":268.7687,"MEAN_ANOMALY":91.2945,"EPHEMERIS_TYPE":0,"CLASSIFICATION_TYPE":"U","NORAD_CAT_ID":56536,"ELEMENT_SET_NO":999,"REV_AT_EPOCH":15644,"BSTAR":0.0001613081,"MEAN_MOTION_DOT":1.976e-5,"MEAN_MOTION_DDOT":0},{"OBJECT_NAME":"QPS-SAR-10 (WADATSUMI-I)","OBJECT_ID":"2025-104A","EPOCH":"2026-03-09T22:18:19.817856","MEAN_MOTION":15.00816738,"ECCENTRICITY":0.00107055,"INCLINATION":42.0035,"RA_OF_ASC_NODE":106.051,"ARG_OF_PERICENTER":46.9104,"MEAN_ANOMALY":313.2617,"EPHEMERIS_TYPE":0,"CLASSIFICATION_TYPE":"U","NORAD_CAT_ID":64055,"ELEMENT_SET_NO":999,"REV_AT_EPOCH":4451,"BSTAR":0.00049051731,"MEAN_MOTION_DOT":6.161e-5,"MEAN_MOTION_DDOT":0}]
